ORBCOMM FM103 [+]       
1 40091U 14040F   23361.13913640  .00001192  00000+0  30484-3 0  9999
2 40091  47.0068  34.6456 0002520 312.7389  47.3283 14.56165137485633
ORBCOMM FM114 [+]       
1 41179U 15081A   23361.24233475  .00001801  00000+0  44123-3 0  9998
2 41179  47.0036 303.4908 0001842  14.1329 345.9607 14.56197606426018
ORBCOMM FM119 [-]       
1 41180U 15081B   23361.00471718  .00000891  00000+0  23741-3 0  9999
2 41180  46.9985 213.8026 0001130 112.3473 247.7531 14.56155517427232
ORBCOMM FM105 [-]       
1 41181U 15081C   23361.57472873  .00000528  00000+0  19801-3 0  9994
2 41181  46.9995 165.7952 0001300  76.3500 283.7524 14.44158446423011
ORBCOMM FM110 [+]       
1 41182U 15081D   23361.21924923  .00001947  00000+0  47371-3 0  9993
2 41182  47.0026 303.0171 0001955 250.0365 110.0309 14.56205650425888
ORBCOMM FM118 [+]       
1 41183U 15081E   23360.23599217  .00001967  00000+0  47822-3 0  9992
2 41183  47.0045 307.9260 0002009 241.5209 118.5474 14.56196554425849
ORBCOMM FM112 [+]       
1 41184U 15081F   23360.98260105  .00001065  00000+0  27631-3 0  9991
2 41184  46.9980 213.1489 0001058  86.9452 273.1553 14.56172386427172
ORBCOMM FM113 [+]       
1 41185U 15081G   23361.71423110  .00001224  00000+0  31207-3 0  9992
2 41185  46.9989 209.9459 0000974 133.1105 226.9861 14.56156893427339
